SAUDISAT 1C (SO-50)     
1 27607U 02058C   24193.27091734  .00002043  00000+0  29240-3 0  9997
2 27607  64.5546 147.5143 0025737  99.7362 260.6650 14.79119143159885
SAUDISAT 2              
1 28371U 04025F   24193.52194074  .00000544  00000+0  13564-3 0  9997
2 28371  98.4842 167.0334 0024132 306.3679  53.5291 14.55540191 63041
SAUDISAT 3              
1 31118U 07012B   24193.59527415  .00000540  00000+0  97630-4 0  9998
2 31118  98.0566 136.9276 0013921 316.9055  43.1060 14.70274390924027
PISAT                   
1 41784U 16059B   24193.58835476  .00001381  00000+0  25874-3 0  9991
2 41784  97.8330 214.4834 0029126 297.2064  62.6172 14.66029328416233
FLYING LAPTOP           
1 42831U 17042G   24193.54092552  .00001689  00000+0  15794-3 0  9995
2 42831  97.3872  13.0762 0012682   1.9565 358.1704 14.95295087380773
SALSAT                  
1 46495U 20068K   24193.47403575  .00006076  00000+0  34248-3 0  9990
2 46495  97.8175 153.3842 0012342 224.1916 135.8330 15.13523552207981
